[{"OBJECT_NAME":"STARLINK-35187","OBJECT_ID":"2025-200B","EPOCH":"2026-03-09T18:18:27.189216","MEAN_MOTION":15.05646685,"ECCENTRICITY":4.385e-5,"INCLINATION":97.6017,"RA_OF_ASC_NODE":139.8981,"ARG_OF_PERICENTER":140.7371,"MEAN_ANOMALY":219.3888,"EPHEMERIS_TYPE":0,"CLASSIFICATION_TYPE":"U","NORAD_CAT_ID":65521,"ELEMENT_SET_NO":999,"REV_AT_EPOCH":2914,"BSTAR":0.00028559409,"MEAN_MOTION_DOT":4.062e-5,"MEAN_MOTION_DDOT":0},{"OBJECT_NAME":"ALOUETTE 2","OBJECT_ID":"1965-098A","EPOCH":"2026-03-09T21:10:26.401728","MEAN_MOTION":12.28241401,"ECCENTRICITY":0.13308103,"INCLINATION":79.8058,"RA_OF_ASC_NODE":1.1474,"ARG_OF_PERICENTER":73.8807,"MEAN_ANOMALY":300.4362,"EPHEMERIS_TYPE":0,"CLASSIFICATION_TYPE":"U","NORAD_CAT_ID":1804,"ELEMENT_SET_NO":999,"REV_AT_EPOCH":66708,"BSTAR":0.00035342687,"MEAN_MOTION_DOT":1.098e-5,"MEAN_MOTION_DDOT":0}]
